STARLINK-6147
1 57120U 23090V   26092.83335647  .00006107  00000+0  42638-3 0  9996
2 57120  43.0001 143.3347 0001670 296.3444 171.5647 15.05957090  5845
